    PK15TK0P  2016 11  2.8591  3.359508  0.537387   82.5577    6.9275    8.7794  20250124  11.0  4.0  P/2015 TP200 (LINEAR)                                    MPC110080
    PK15W020  2015 10  8.5316  2.658789  0.635418  117.6939  294.0818   11.6196  20250124  13.0  4.0  P/2015 W2 (Catalina)                                     MPC101098
    PK15X030  2026 10 23.5499  2.799374  0.439948  306.9655   77.2562   24.4232  20250124  15.0  4.0  P/2015 X3 (PANSTARRS)                                    MPEC 2023-J29
    PK15X060  2025 05 11.6387  2.273649  0.173873  329.7868  106.9345    4.5654  20250124  16.0  4.0  P/2015 X6 (PANSTARRS)                                    MPC115881
    CK15K070  2013 02 26.8788  9.933993  1.001479    5.4368  258.1776  159.9303  20250124   8.1  4.0  C/2015 K7                                                MPEC 2024-Y66
    PK16A030  2017 04 25.9518  4.824269  0.386885  340.7942  187.1449    8.5190  20250124  10.0  4.0  P/2016 A3 (PANSTARRS)                                    MPEC 2022-OB6
    PK16A070  2027 05 29.0773  2.176723  0.569211  352.5672  221.1085   16.4415  20250124  16.0  4.0  P/2016 A7 (PANSTARRS)                                    MPC102098
    PK16G010  2025 05 16.1637  2.041048  0.210086  111.0922  204.0139   10.9699  20250124  14.0  4.0  P/2016 G1 (PANSTARRS)                                    MPEC 2021-P47
    CK16J020  2016 04 13.1777  1.496037  1.000413  318.3030  186.3300  130.3596  20250124  17.0  4.0  C/2016 J2 (Denneau)                                      MPEC 2024-C04
    PK16P010  2027 03  5.4920  2.282258  0.287630  270.9056  319.1368   24.4108  20250124  15.0  4.0  P/2016 P1 (PANSTARRS)                                    MPC102099
    CK16Q020  2021 05 11.9291  7.080019  1.002768   84.5362  322.3457  109.3349  20250124   6.0  4.0  C/2016 Q2 (PANSTARRS)                                    MPEC 2024-H50
    PK16R040  2028 11 19.3240  2.802125  0.474930  174.1172  168.2725   10.8659  20250124  12.5  4.0  P/2016 R4 (Gibbs)                                        MPEC 2022-K19
    PK16S010  2017 03 20.1152  2.382141  0.711867  273.1711  227.6620   94.7358  20250124  12.0  4.0  P/2016 S1 (PANSTARRS)                                    MPC105543
    PK16W48M  2017 02 26.8057  1.765501  0.784004   36.1832   59.9523  117.6316  20250124  15.0  4.0  P/2016 WM48 (Lemmon)                                     MPC106345
    CK16X010  2019 04 30.2127  7.558229  0.996807  224.5851  256.2987   26.4704  20250124   6.0  4.0  C/2016 X1 (Lemmon)                                       MPEC 2021-P47
    CK17B030  2019 01 30.3362  3.934173  0.998990  284.7896    2.2282   54.2088  20250124   6.0  4.0  C/2017 B3 (LINEAR)                                       MPEC 2022-OB6
    PK17B040  2017 01  5.8178  2.800894  0.364952   11.0197  121.4578   20.0584            14.5  4.0  P/2017 B4 (PANSTARRS)                                    MPC103847
    PK17D010  2027 01 30.8800  2.711514  0.437812    8.0523   82.1975   20.7719  20250124  14.0  4.0  P/2017 D1 (Fuls)                                         MPEC 2022-OB6
    PK17D040  2016 09  9.8385  2.786730  0.630509  212.1224  264.9140   10.5617  20250124  13.0  4.0  P/2017 D4 (PANSTARRS)                                    MPEC 2022-OB6
    PK17G010  2016 04 20.1257  2.512026  0.650749  225.2378  247.1433    5.1557  20250124  13.5  4.0  P/2017 G1 (PANSTARRS)                                    MPEC 2024-C04
    PK17G020  2017 06  9.8107  2.824150  0.648621  105.2209   79.9025   47.9684  20250124  13.0  4.0  P/2017 G2 (PANSTARRS)                                    MPC108595
    CK17K020  2022 12 18.9818  1.799481  0.999490  236.1941   88.2217   87.6389  20250124   1.5  4.0  C/2017 K2 (PANSTARRS)                                    MPEC 2025-AH4
    PK17K030  2030 08  1.4738  2.351307  0.579066  253.2918  354.2307    4.2726  20250124  14.5  4.0  P/2017 K3 (Gasparovic)                                   MPEC 2021-N06
    CK17K050  2020 03 25.9393  7.680210  1.003253  171.9709  102.4543   82.2781  20250124   5.0  4.0  C/2017 K5 (PANSTARRS)                                    MPEC 2021-P47
    CK17M040  2019 01 17.7521  3.238431  1.000358  167.4454   66.0222  105.6227  20250124   6.0  4.0  C/2017 M4 (ATLAS)                                        MPEC 2022-OB6
    PK17P010  2018 06 20.5823  5.471637  0.309277  122.8126  221.4649    7.6879  20250124  10.0  4.0  P/2017 P1 (PANSTARRS)                                    MPC114599
    PK17S080  2027 05  4.4251  1.691830  0.391136  254.9034  191.5176   29.8407  20250124  16.0  4.0  P/2017 S8 (PANSTARRS)                                    MPEC 2022-OB6
    CK17T020  2020 05  5.7678  1.605249  0.998959   92.7858   64.4498   57.2922  20250124   5.0  4.0  C/2017 T2 (PANSTARRS)                                    MPEC 2024-A43
    PK17T13W  2018 06 23.6440  2.064238  0.710751  119.9909  322.1441   44.8787  20250124  15.0  2.0  P/2017 TW13 (Lemmon)                                     MPC115882
    PK17U030  2030 03 15.0491  4.424186  0.100777  296.3748  165.0642   15.9206  20250124  11.0  4.0  P/2017 U3 (PANSTARRS)                                    MPEC 2022-K19
    CK17U070  2019 09 16.2786  6.422326  1.002805  326.4440  276.3183  142.6387  20250124   8.3  2.0  C/2017 U7 (PANSTARRS)                                    MPEC 2023-A50
    PK17W030  2018 02 26.2903  3.856092  0.506870  327.7623  210.0923   18.1835  20250124  10.5  4.0  P/2017 W3 (Gibbs)                                        MPC114601
    CK17Y020  2020 11  5.0252  4.623744  1.001268  147.8415   66.0361  128.4496  20250124  15.0  4.0  C/2017 Y2 (PANSTARRS)                                    MPEC 2024-DC6
    PK17Y030  2018 02  6.3548  1.278738  0.869482   67.3715  153.9929   27.6198  20250124  16.5  4.0  P/2017 Y3 (Leonard)                                      MPC111770
    CK18A030  2019 01  8.8118  3.291054  0.990426   86.4766  194.3412  139.5924  20250124   8.5  4.0  C/2018 A3 (ATLAS)                                        MPEC 2021-P47
    PK18A050  2031 01 30.8990  2.674542  0.524489  359.5385   87.7837   23.6246  20250124  15.0  4.0  P/2018 A5 (PANSTARRS)                                    MPC109147
    CK18A060  2019 07 10.2312  3.017973  0.798807  264.2848  340.4428   77.1430  20250124   9.0  4.0  C/2018 A6 (Gibbs)                                        MPEC 2024-JU4
    PK18C010  2031 07 31.0658  2.640889  0.532573  235.7689  270.2252    5.1030  20250124  13.5  4.0  P/2018 C1 (Lemmon-Read)                                  MPC114601
    CK18D04O  2019 08 16.9368  2.420654  0.905057  176.3955  251.3877  160.4478  20250124  11.0  4.0  C/2018 DO4 (Lemmon)                                      MPEC 2022-M88
    CK18F010  2018 12 10.1743  2.993335  0.986326   71.4581  177.3102   46.1538  20250124  11.5  4.0  C/2018 F1 (Grauer)                                       MPEC 2021-R75
    CK18F040  2019 12  1.1176  3.448357  0.998159  263.2017   26.5293   78.1182  20250124  11.0  6.0  C/2018 F4 (PANSTARRS)                                    MPEC 2023-A50
    CK18F04a  2019 12  1.1057  3.448224  0.998106  263.1985   26.5295   78.1184  20250124  11.0  6.0  C/2018 F4-A                                              MPEC 2021-Y10
    CK18F04b  2019 12  1.0425  3.448042  0.998195  263.1843   26.5290   78.1194  20250124  11.0  6.0  C/2018 F4-B                                              MPEC 2023-D41
    PK18H020  2027 03 18.3880  2.026390  0.540008  119.2762   67.9804    7.4193  20250124  16.6  2.0  P/2018 H2 (PANSTARRS)                                    MPC114602
    CK18K03J  2019 09  9.1257  3.618087  0.995051  217.5526   91.6948  136.6213  20250124  12.2  2.0  C/2018 KJ3 (Lemmon)                                      MPEC 2021-R75
    PK18L010  2025 11  5.8639  1.897224  0.481259   17.9635  268.5844   10.5785  20250124  15.0  4.0  P/2018 L1 (PANSTARRS)                                    MPC114602
    CK18L020  2018 11 29.9419  1.721212  0.992790   56.3507  242.9836   67.2014  20250124  10.0  4.0  C/2018 L2 (ATLAS)                                        MPEC 2021-P47
    PK18L040  2029 07 29.2476  1.691359  0.658199  140.5206  145.2240   26.5920  20250124  17.5  4.0  P/2018 L4 (PANSTARRS)                                    MPC114603
    CK18N020  2019 11 12.0690  3.134545  1.001951   25.3136   24.5153   77.5165  20250124   6.0  4.0  C/2018 N2 (ASASSN)                                       MPEC 2022-YN2
    PK18P040  2018 11  7.7824  3.686726  0.449315    8.5151  353.1553   23.0841  20250124  12.0  4.0  P/2018 P4 (PANSTARRS)                                    MPC114603
    CK18P050  2019 02 26.4059  4.601900  0.641853  132.0473  216.2601    7.2461  20250124  11.0  4.0  C/2018 P5 (PANSTARRS)                                    MPEC 2021-P47
    CK18R030  2019 06  8.1101  1.283121  0.999266  112.7747  324.4008   69.6932  20250124   9.5  4.0  C/2018 R3 (Lemmon)                                       MPC118841
    CK18R050  2019 01 10.7372  3.638615  0.841689  178.2753  171.2498  103.6974  20250124  11.5  4.0  C/2018 R5 (Lemmon)                                       MPC114603
    CK18S020  2018 11  5.8766  5.488151  0.618102  290.9317   85.1067   64.1100  20250124   7.5  4.0  C/2018 S2 (TESS)                                         MPEC 2022-QC6
    CK18U010  2021 11  2.3656  4.987463  1.000440  180.3794   75.5171  108.3257  20250124   5.0  4.0  C/2018 U1 (Lemmon)                                       MPEC 2024-JU4
    CK18V010  2018 12  3.7991  0.391439  1.000450   89.5402  129.5448  144.1906  20250124  12.0  4.0  C/2018 V1 (Machholz-Fujikawa-Iwamoto)                    MPC114604
    CK18V020  2018 11 25.9870  2.492859  0.901193  319.2577  357.1919  159.1633  20250124  15.0  4.0  C/2018 V2 (ATLAS)                                        MPC115884
    PK18V02N  2026 08 15.6987  2.118961  0.478243  138.9291  226.4403   18.2587  20250124  15.0  4.0  P/2018 VN2 (Leonard)                                     MPEC 2025-A40
